NORAD_CAT_ID,OBJECT_NAME,OBJECT_TYPE,EPOCH,MEAN_MOTION,ECCENTRICITY,INCLINATION,RA_OF_ASC_NODE,ARG_OF_PERICENTER,MEAN_ANOMALY,BSTAR,MEAN_MOTION_DOT,MEAN_MOTION_DDOT,TLE_LINE0,TLE_LINE1,TLE_LINE2,SEMIMAJOR_AXIS,PERIOD,APOGEE,PERIGEE,DECAYED
53018.0,STARLINK-4279,PAYLOAD,2024-03-26 04:21:41,15.08816344,0.0001609,53.2178,47.4352,102.6479,257.4693,-0.00047792,-7.881e-05,0.0,0 STARLINK-4279,1 53018U 22076AJ  24086.18172867 -.00007881  00000-0 -47792-3 0  9992,2 53018  53.2178  47.4352 0001609 102.6479 257.4693 15.08816344 95735,6917.953,95.439,540.931,538.705,0.0
53018.0,STARLINK-4279,PAYLOAD,2024-03-26 13:54:00,15.08826562,0.0001524,53.219,45.6558,98.6891,261.4274,-0.00010576,-1.97e-05,0.0,0 STARLINK-4279,1 53018U 22076AJ  24086.57916956 -.00001970  00000-0 -10576-3 0  9993,2 53018  53.2190  45.6558 0001524  98.6891 261.4274 15.08826562 95323,6917.921,95.438,540.841,538.732,0.0
53018.0,STARLINK-4279,PAYLOAD,2024-03-27 04:12:28,15.08845708,0.000142,53.219,42.9827,96.053,264.0624,0.00042002,6.404e-05,0.0,0 STARLINK-4279,1 53018U 22076AJ  24087.17532838  .00006404  00000-0  42002-3 0  9997,2 53018  53.2190  42.9827 0001420  96.0530 264.0624 15.08845708 95881,6917.863,95.437,540.71,538.746,0.0
53018.0,STARLINK-4279,PAYLOAD,2024-03-27 07:23:14,15.08849822,0.0001406,53.2185,42.3853,92.2878,267.8275,0.00070797,0.00011,0.0,0 STARLINK-4279,1 53018U 22076AJ  24087.30780807  .00011000  00000-0  70797-3 0  9993,2 53018  53.2185  42.3853 0001406  92.2878 267.8275 15.08849822 95430,6917.85,95.437,540.688,538.743,0.0
53018.0,STARLINK-4279,PAYLOAD,2024-03-28 04:03:15,15.0884172,0.0001045,53.2177,38.5218,77.5966,282.5143,0.00026357,3.91e-05,0.0,0 STARLINK-4279,1 53018U 22076AJ  24088.16893276  .00003910  00000-0  26357-3 0  9997,2 53018  53.2177  38.5218 0001045  77.5966 282.5143 15.08841720 96030,6917.875,95.437,540.463,539.017,0.0
53018.0,STARLINK-4279,PAYLOAD,2024-03-28 13:35:34,15.08842368,0.0001706,53.2183,36.7377,90.5133,269.6054,4.584e-05,4.42e-06,0.0,0 STARLINK-4279,1 53018U 22076AJ  24088.56637114  .00000442  00000-0  45840-4 0  9994,2 53018  53.2183  36.7377 0001706  90.5133 269.6054 15.08842368 95628,6917.873,95.437,540.918,538.558,0.0
53018.0,STARLINK-4279,PAYLOAD,2024-03-29 13:26:21,15.0884401,0.0001461,53.2194,32.2767,77.5997,282.5158,0.00020781,3.021e-05,0.0,0 STARLINK-4279,1 53018U 22076AJ  24089.55997014  .00003021  00000-0  20781-3 0  9994,2 53018  53.2194  32.2767 0001461  77.5997 282.5158 15.08844010 96249,6917.868,95.437,540.744,538.722,0.0
53018.0,STARLINK-4279,PAYLOAD,2024-03-30 13:17:08,15.08842869,0.0001406,53.2186,27.8166,83.5482,276.567,0.00012973,1.777e-05,0.0,0 STARLINK-4279,1 53018U 22076AJ  24090.55357258  .00001777  00000-0  12973-3 0  9996,2 53018  53.2186  27.8166 0001406  83.5482 276.5670 15.08842869 96396,6917.872,95.437,540.709,538.764,0.0
53018.0,STARLINK-4279,PAYLOAD,2024-03-31 13:07:56,15.08834656,0.0001287,53.2209,23.3543,84.6715,275.4424,4.3099e-05,3.98e-06,0.0,0 STARLINK-4279,1 53018U 22076AJ  24091.54717754  .00000398  00000-0  43099-4 0  9999,2 53018  53.2209  23.3543 0001287  84.6715 275.4424 15.08834656 96547,6917.897,95.438,540.652,538.871,0.0
53018.0,STARLINK-4279,PAYLOAD,2024-04-01 05:01:47,15.08841559,0.0001505,53.2193,20.38,88.9466,271.1699,0.00015846,2.235e-05,0.0,0 STARLINK-4279,1 53018U 22076AJ  24092.20957869  .00002235  00000-0  15846-3 0  9996,2 53018  53.2193  20.3800 0001505  88.9466 271.1699 15.08841559 96171,6917.876,95.437,540.782,538.699,0.0
53018.0,STARLINK-4279,PAYLOAD,2024-04-01 19:20:15,15.08844664,0.0001523,53.2194,17.7037,95.18,264.9366,0.00026069,3.864e-05,0.0,0 STARLINK-4279,1 53018U 22076AJ  24092.80573856  .00003864  00000-0  26069-3 0  9990,2 53018  53.2194  17.7037 0001523  95.1800 264.9366 15.08844664 96739,6917.866,95.437,540.785,538.678,0.0
53018.0,STARLINK-4279,PAYLOAD,2024-04-02 11:14:06,15.08852002,0.0001457,53.2175,14.7297,76.7988,283.3167,0.00035949,5.44e-05,0.0,0 STARLINK-4279,1 53018U 22076AJ  24093.46813523  .00005440  00000-0  35949-3 0  9990,2 53018  53.2175  14.7297 0001457  76.7988 283.3167 15.08852002 96369,6917.844,95.437,540.717,538.701,0.0
53018.0,STARLINK-4279,PAYLOAD,2024-04-03 04:43:21,15.08841693,0.0001463,53.219,11.4638,93.204,266.912,6.5315e-05,7.52e-06,0.0,0 STARLINK-4279,1 53018U 22076AJ  24094.19677773  .00000752  00000-0  65315-4 0  9998,2 53018  53.2190  11.4638 0001463  93.2040 266.9120 15.08841693 96943,6917.875,95.437,540.752,538.728,0.0
53018.0,STARLINK-4279,PAYLOAD,2024-04-03 11:04:53,15.08850362,0.0001538,53.22,10.2752,96.7984,263.3183,0.00028922,4.319e-05,0.0,0 STARLINK-4279,1 53018U 22076AJ  24094.46173455  .00004319  00000-0  28922-3 0  9991,2 53018  53.2200  10.2752 0001538  96.7984 263.3183 15.08850362 96513,6917.849,95.437,540.778,538.65,0.0
53018.0,STARLINK-4279,PAYLOAD,2024-04-04 04:34:07,15.08876347,0.000132,53.2186,7.0019,91.2237,268.8906,0.00079906,0.00012465,0.0,0 STARLINK-4279,1 53018U 22076AJ  24095.19036101  .00012465  00000-0  79906-3 0  9997,2 53018  53.2186   7.0019 0001320  91.2237 268.8906 15.08876347 97094,6917.769,95.435,540.547,538.721,0.0
53018.0,STARLINK-4279,PAYLOAD,2024-04-04 10:55:39,15.08854396,0.0001623,53.2181,5.8085,73.8361,286.281,-3.0615e-05,-7.75e-06,0.0,0 STARLINK-4279,1 53018U 22076AJ  24095.45532242 -.00000775  00000-0 -30615-4 0  9991,2 53018  53.2181   5.8085 0001623  73.8361 286.2810 15.08854396 97131,6917.836,95.437,540.824,538.579,0.0
53018.0,STARLINK-4279,PAYLOAD,2024-04-04 22:03:22,15.08827835,0.0001145,53.2186,3.7316,86.4782,273.6341,-0.00039515,-6.569e-05,0.0,0 STARLINK-4279,1 53018U 22076AJ  24095.91901007 -.00006569  00000-0 -39515-3 0  9995,2 53018  53.2186   3.7316 0001145  86.4782 273.6341 15.08827835 96738,6917.918,95.438,540.575,538.99,0.0
53018.0,STARLINK-4279,PAYLOAD,2024-04-05 02:49:32,15.08826746,0.0001572,53.2194,2.8421,87.7173,272.3999,6.9283e-05,8.14e-06,0.0,0 STARLINK-4279,1 53018U 22076AJ  24096.11773486  .00000814  00000-0  69283-4 0  9997,2 53018  53.2194   2.8421 0001572  87.7173 272.3999 15.08826746 97237,6917.921,95.438,540.873,538.698,0.0
53018.0,STARLINK-4279,PAYLOAD,2024-04-05 21:54:10,15.08848778,0.0001266,53.2183,359.2708,78.8173,281.2962,0.0011614,0.00018248,0.0,0 STARLINK-4279,1 53018U 22076AJ  24096.91261757  .00018248  00000-0  11614-2 0  9991,2 53018  53.2183 359.2708 0001266  78.8173 281.2962 15.08848778 96881,6917.854,95.437,540.594,538.843,0.0
53018.0,STARLINK-4279,PAYLOAD,2024-04-06 01:04:56,15.08856801,0.0001174,53.2185,358.6767,84.1378,275.9748,0.0012936,0.00020369,0.0,0 STARLINK-4279,1 53018U 22076AJ  24097.04509570  .00020369  00000-0  12936-2 0  9999,2 53018  53.2185 358.6767 0001174  84.1378 275.9748 15.08856801 97379,6917.829,95.436,540.506,538.882,0.0
53018.0,STARLINK-4279,PAYLOAD,2024-04-06 10:37:15,15.08852694,0.0001222,53.2203,356.8895,91.6576,268.4556,0.00068758,0.00010676,0.0,0 STARLINK-4279,1 53018U 22076AJ  24097.44253552  .00010676  00000-0  68758-3 0  9993,2 53018  53.2203 356.8895 0001222  91.6576 268.4556 15.08852694 97436,6917.842,95.437,540.552,538.861,0.0
53018.0,STARLINK-4279,PAYLOAD,2024-04-06 21:44:57,15.08846245,0.0001922,53.2191,354.809,86.4056,273.7156,0.00041563,6.334e-05,0.0,0 STARLINK-4279,1 53018U 22076AJ  24097.90621905  .00006334  00000-0  41563-3 0  9996,2 53018  53.2191 354.8090 0001922  86.4056 273.7156 15.08846245 97035,6917.861,95.437,541.056,538.397,0.0
53018.0,STARLINK-4279,PAYLOAD,2024-04-07 10:28:02,15.08835817,0.0001363,53.2182,352.4305,87.8319,272.2829,2.4568e-06,-2.49e-06,0.0,0 STARLINK-4279,1 53018U 22076AJ  24098.43614144 -.00000249  00000-0  24568-5 0  9990,2 53018  53.2182 352.4305 0001363  87.8319 272.2829 15.08835817 97117,6917.893,95.438,540.701,538.815,0.0
53018.0,STARLINK-4279,PAYLOAD,2024-04-07 23:11:07,15.08837379,0.0001291,53.2178,350.0514,93.3295,266.7845,4.7012e-05,4.6e-06,0.0,0 STARLINK-4279,1 53018U 22076AJ  24098.96606317  .00000460  00000-0  47012-4 0  9993,2 53018  53.2178 350.0514 0001291  93.3295 266.7845 15.08837379 97192,6917.888,95.438,540.646,538.86,0.0
53018.0,STARLINK-4279,PAYLOAD,2024-04-08 02:21:54,15.08839867,0.0001286,53.2179,349.4566,97.9569,262.157,6.9735e-05,8.22e-06,0.0,0 STARLINK-4279,1 53018U 22076AJ  24099.09854274  .00000822  00000-0  69735-4 0  9993,2 53018  53.2179 349.4566 0001286  97.9569 262.1570 15.08839867 97683,6917.881,95.438,540.635,538.856,0.0
53018.0,STARLINK-4279,PAYLOAD,2024-04-08 10:18:49,15.08843476,0.0001383,53.218,347.97,91.677,268.4381,7.4016e-05,8.9e-06,0.0,0 STARLINK-4279,1 53018U 22076AJ  24099.42974165  .00000890  00000-0  74016-4 0  9995,2 53018  53.2180 347.9700 0001383  91.6770 268.4381 15.08843476 97265,6917.87,95.437,540.692,538.778,0.0
53018.0,STARLINK-4279,PAYLOAD,2024-04-08 23:01:54,15.08846746,0.0001341,53.2183,345.5908,90.1411,269.9735,0.0002408,3.547e-05,0.0,0 STARLINK-4279,1 53018U 22076AJ  24099.95966043  .00003547  00000-0  24080-3 0  9996,2 53018  53.2183 345.5908 0001341  90.1411 269.9735 15.08846746 97343,6917.86,95.437,540.652,538.797,0.0
53018.0,STARLINK-4279,PAYLOAD,2024-04-09 02:12:40,15.08848457,0.0001349,53.2184,344.9959,90.7273,269.3873,0.00025315,3.744e-05,0.0,0 STARLINK-4279,1 53018U 22076AJ  24100.09213928  .00003744  00000-0  25315-3 0  9992,2 53018  53.2184 344.9959 0001349  90.7273 269.3873 15.08848457 97363,6917.855,95.437,540.653,538.786,0.0
53018.0,STARLINK-4279,PAYLOAD,2024-04-09 22:52:42,15.08837433,0.0001462,53.2192,341.1301,79.9522,280.1635,8.0636e-05,9.96e-06,0.0,0 STARLINK-4279,1 53018U 22076AJ  24100.95326618  .00000996  00000-0  80636-4 0  9992,2 53018  53.2192 341.1301 0001462  79.9522 280.1635 15.08837433 97497,6917.888,95.438,540.765,538.742,0.0
53018.0,STARLINK-4279,PAYLOAD,2024-04-10 08:25:00,15.08839,0.0001289,53.218,339.3461,75.8385,284.2751,3.6212e-05,2.88e-06,0.0,0 STARLINK-4279,1 53018U 22076AJ  24101.35070557  .00000288  00000-0  36212-4 0  9990,2 53018  53.2180 339.3461 0001289  75.8385 284.2751 15.08839000 97552,6917.883,95.438,540.64,538.857,0.0
